{
  "type": "FeatureCollection",
  "features": [
    {
      "type": "Feature",
      "properties": {
        "norad_id": 66801,
        "name": "STARLINK-36080",
        "group": "last-30-days",
        "lat": 13.704651943461366,
        "lon": -1.5697581373047507,
        "alt_km": 403.2083346566824,
        "timestamp": "2025-12-22T09:53:36.144667+00:00",
        "meta_object_name": "STARLINK-36080",
        "meta_object_id": "2025-278L",
        "meta_epoch": "2025-12-22T04:00:01.998720",
        "meta_mean_motion": 15.55141661,
        "meta_eccentricity": 0.000124,
        "meta_inclination": 42.9995,
        "meta_ra_of_asc_node": 195.0464,
        "meta_arg_of_pericenter": 266.3343,
        "meta_mean_anomaly": 317.4787,
        "meta_ephemeris_type": 0,
        "meta_classification_type": "U",
        "meta_norad_cat_id": 66801,
        "meta_element_set_no": 999,
        "meta_rev_at_epoch": 447,
        "meta_bstar": -0.033154,
        "meta_mean_motion_dot": -0.02047134,
        "meta_mean_motion_ddot": 0,
        "tle_line1": "1 66801U 25278L   25356.16668980 -.02047134  00000+0 -33154-1 0  9999",
        "tle_line2": "2 66801  42.9995 195.0464 0001240 266.3343 317.4787 15.55141661  4471"
      },
      "geometry": {
        "type": "Point",
        "coordinates": [
          -1.5697581373047507,
          13.704651943461366
        ]
      }
    },
    {
      "type": "Feature",
      "properties": {
        "norad_id": 66802,
        "name": "STARLINK-35604",
        "group": "last-30-days",
        "lat": 21.08354968654513,
        "lon": -10.809458185184035,
        "alt_km": 402.25171818072613,
        "timestamp": "2025-12-22T09:53:36.144676+00:00",
        "meta_object_name": "STARLINK-35604",
        "meta_object_id": "2025-278M",
        "meta_epoch": "2025-12-22T04:00:01.998720",
        "meta_mean_motion": 15.55142947,
        "meta_eccentricity": 0.0001327,
        "meta_inclination": 42.999,
        "meta_ra_of_asc_node": 195.0764,
        "meta_arg_of_pericenter": 265.7524,
        "meta_mean_anomaly": 306.555,
        "meta_ephemeris_type": 0,
        "meta_classification_type": "U",
        "meta_norad_cat_id": 66802,
        "meta_element_set_no": 999,
        "meta_rev_at_epoch": 447,
        "meta_bstar": -0.033165,
        "meta_mean_motion_dot": -0.02047884,
        "meta_mean_motion_ddot": 0,
        "tle_line1": "1 66802U 25278M   25356.16668980 -.02047884  00000+0 -33165-1 0  9994",
        "tle_line2": "2 66802  42.9990 195.0764 0001327 265.7524 306.5550 15.55142947  4475"
      },
      "geometry": {
        "type": "Point",
        "coordinates": [
          -10.809458185184035,
          21.08354968654513
        ]
      }
    },
    {
      "type": "Feature",
      "properties": {
        "norad_id": 66803,
        "name": "STARLINK-35565",
        "group": "last-30-days",
        "lat": 18.672561128978835,
        "lon": -7.6435940061016305,
        "alt_km": 402.6411014018595,
        "timestamp": "2025-12-22T09:53:36.144687+00:00",
        "meta_object_name": "STARLINK-35565",
        "meta_object_id": "2025-278N",
        "meta_epoch": "2025-12-22T04:00:01.998720",
        "meta_mean_motion": 15.55143707,
        "meta_eccentricity": 0.000127,
        "meta_inclination": 42.9993,
        "meta_ra_of_asc_node": 195.0661,
        "meta_arg_of_pericenter": 270.8631,
        "meta_mean_anomaly": 305.2779,
        "meta_ephemeris_type": 0,
        "meta_classification_type": "U",
        "meta_norad_cat_id": 66803,
        "meta_element_set_no": 999,
        "meta_rev_at_epoch": 456,
        "meta_bstar": -0.033159,
        "meta_mean_motion_dot": -0.02047569,
        "meta_mean_motion_ddot": 0,
        "tle_line1": "1 66803U 25278N   25356.16668980 -.02047569  00000+0 -33159-1 0  9998",
        "tle_line2": "2 66803  42.9993 195.0661 0001270 270.8631 305.2779 15.55143707  4562"
      },
      "geometry": {
        "type": "Point",
        "coordinates": [
          -7.6435940061016305,
          18.672561128978835
        ]
      }
    },
    {
      "type": "Feature",
      "properties": {
        "norad_id": 66804,
        "name": "STARLINK-36038",
        "group": "last-30-days",
        "lat": 17.448346975679733,
        "lon": -6.096006122118354,
        "alt_km": 402.64336101066874,
        "timestamp": "2025-12-22T09:53:36.144697+00:00",
        "meta_object_name": "STARLINK-36038",
        "meta_object_id": "2025-278P",
        "meta_epoch": "2025-12-22T04:00:01.998720",
        "meta_mean_motion": 15.55143322,
        "meta_eccentricity": 0.0001335,
        "meta_inclination": 42.9992,
        "meta_ra_of_asc_node": 195.062,
        "meta_arg_of_pericenter": 260.8659,
        "meta_mean_anomaly": 317.1938,
        "meta_ephemeris_type": 0,
        "meta_classification_type": "U",
        "meta_norad_cat_id": 66804,
        "meta_element_set_no": 999,
        "meta_rev_at_epoch": 447,
        "meta_bstar": -0.033192,
        "meta_mean_motion_dot": -0.02049398,
        "meta_mean_motion_ddot": 0,
        "tle_line1": "1 66804U 25278P   25356.16668980 -.02049398  00000+0 -33192-1 0  9998",
        "tle_line2": "2 66804  42.9992 195.0620 0001335 260.8659 317.1938 15.55143322  4470"
      },
      "geometry": {
        "type": "Point",
        "coordinates": [
          -6.096006122118354,
          17.448346975679733
        ]
      }
    },
    {
      "type": "Feature",
      "properties": {
        "norad_id": 66805,
        "name": "STARLINK-36049",
        "group": "last-30-days",
        "lat": 14.963991925795106,
        "lon": -3.062201571315926,
        "alt_km": 403.0070213151603,
        "timestamp": "2025-12-22T09:53:36.144709+00:00",
        "meta_object_name": "STARLINK-36049",
        "meta_object_id": "2025-278Q",
        "meta_epoch": "2025-12-22T04:00:01.998720",
        "meta_mean_motion": 15.55136328,
        "meta_eccentricity": 0.0001388,
        "meta_inclination": 42.9995,
        "meta_ra_of_asc_node": 195.0512,
        "meta_arg_of_pericenter": 262.299,
        "meta_mean_anomaly": 319.5995,
        "meta_ephemeris_type": 0,
        "meta_classification_type": "U",
        "meta_norad_cat_id": 66805,
        "meta_element_set_no": 999,
        "meta_rev_at_epoch": 447,
        "meta_bstar": -0.033069,
        "meta_mean_motion_dot": -0.02042191,
        "meta_mean_motion_ddot": 0,
        "tle_line1": "1 66805U 25278Q   25356.16668980 -.02042191  00000+0 -33069-1 0  9996",
        "tle_line2": "2 66805  42.9995 195.0512 0001388 262.2990 319.5995 15.55136328  4473"
      },
      "geometry": {
        "type": "Point",
        "coordinates": [
          -3.062201571315926,
          14.963991925795106
        ]
      }
    },
    {
      "type": "Feature",
      "properties": {
        "norad_id": 66806,
        "name": "STARLINK-36069",
        "group": "last-30-days",
        "lat": 16.210510537100618,
        "lon": -4.56837746298504,
        "alt_km": 402.9500050832312,
        "timestamp": "2025-12-22T09:53:36.144724+00:00",
        "meta_object_name": "STARLINK-36069",
        "meta_object_id": "2025-278R",
        "meta_epoch": "2025-12-22T04:00:01.998720",
        "meta_mean_motion": 15.55138196,
        "meta_eccentricity": 0.000135,
        "meta_inclination": 42.9992,
        "meta_ra_of_asc_node": 195.0565,
        "meta_arg_of_pericenter": 268.1171,
        "meta_mean_anomaly": 311.8636,
        "meta_ephemeris_type": 0,
        "meta_classification_type": "U",
        "meta_norad_cat_id": 66806,
        "meta_element_set_no": 999,
        "meta_rev_at_epoch": 426,
        "meta_bstar": -0.0331,
        "meta_mean_motion_dot": -0.02044034,
        "meta_mean_motion_ddot": 0,
        "tle_line1": "1 66806U 25278R   25356.16668980 -.02044034  00000+0 -33100-1 0  9991",
        "tle_line2": "2 66806  42.9992 195.0565 0001350 268.1171 311.8636 15.55138196  4263"
      },
      "geometry": {
        "type": "Point",
        "coordinates": [
          -4.56837746298504,
          16.210510537100618
        ]
      }
    },
    {
      "type": "Feature",
      "properties": {
        "norad_id": 66807,
        "name": "STARLINK-36000",
        "group": "last-30-days",
        "lat": 12.440694885593437,
        "lon": -0.09690010616118008,
        "alt_km": 403.2717006695402,
        "timestamp": "2025-12-22T09:53:36.144735+00:00",
        "meta_object_name": "STARLINK-36000",
        "meta_object_id": "2025-278S",
        "meta_epoch": "2025-12-22T04:00:01.998720",
        "meta_mean_motion": 15.55143434,
        "meta_eccentricity": 0.0001352,
        "meta_inclination": 42.9997,
        "meta_ra_of_asc_node": 195.0429,
        "meta_arg_of_pericenter": 260.5284,
        "meta_mean_anomaly": 325.1987,
        "meta_ephemeris_type": 0,
        "meta_classification_type": "U",
        "meta_norad_cat_id": 66807,
        "meta_element_set_no": 999,
        "meta_rev_at_epoch": 453,
        "meta_bstar": -0.033174,
        "meta_mean_motion_dot": -0.02048425,
        "meta_mean_motion_ddot": 0,
        "tle_line1": "1 66807U 25278S   25356.16668980 -.02048425  00000+0 -33174-1 0  9991",
        "tle_line2": "2 66807  42.9997 195.0429 0001352 260.5284 325.1987 15.55143434  4539"
      },
      "geometry": {
        "type": "Point",
        "coordinates": [
          -0.09690010616118008,
          12.440694885593437
        ]
      }
    }
  ]
}